ISS OBJECT XW           
1 66910U 98067XW  26115.58371124  .00332519  51180-4  11658-2 0  9993
2 66910  51.6162 183.4268 0011419 354.2702   5.8171 15.88610499 22586
ISS OBJECT XY           
1 66912U 98067XY  26115.46576245  .00143115  00000+0  96724-3 0  9993
2 66912  51.6239 188.7217 0008011 350.6443   9.4405 15.74058220 22494
KNACKSAT-2              
1 67683U 98067XZ  26115.93505304  .00042262  00000+0  60658-3 0  9997
2 67683  51.6297 196.3967 0012347   4.2804 355.8290 15.55609093 12130
CORAL                   
1 67684U 98067YA  26115.50974042  .00091906  00000+0  99925-3 0  9998
2 67684  51.6271 196.5521 0016263 355.5424   4.5423 15.62534469 12095
GXIBA-1                 
1 67685U 98067YB  26115.65566634  .00043465  00000+0  60490-3 0  9991
2 67685  51.6290 197.5310 0014286   0.3146 359.7852 15.56401322 12098
UITMSAT-2               
1 67686U 98067YC  26115.93861753  .00064579  00000+0  84158-3 0  9999
2 67686  51.6295 195.6732 0011312 342.8024  17.2584 15.58035870 12144
HMU-SAT2                
1 67687U 98067YD  26115.60171841  .00041465  00000+0  58613-3 0  9992
2 67687  51.6300 197.9245 0010418 342.1591  17.9033 15.56056842 12005
LEOPARD                 
1 67688U 98067YE  26115.25006149  .00055236  00000+0  74371-3 0  9992
2 67688  51.6294 199.3265 0010851 340.0699  19.9867 15.57236025 11957
CREW DRAGON 12          
1 67796U 26031A   26115.61933538  .00010271  00000+0  19457-3 0  9999
2 67796  51.6320 200.2872 0006949 349.7097  10.3748 15.48952974563766
PROGRESS-MS 33          
1 68319U 26058A   26115.61933538  .00010271  00000+0  19457-3 0  9990
2 68319  51.6320 200.2872 0006949 349.7097  10.3748 15.48952974  5196
CYGNUS NG-24            
1 68689U 26079A   26115.61933538  .00010271  00000+0  19457-3 0  9993
2 68689  51.6320 200.2872 0006949 349.7097  10.3748 15.48952974  2249
